NORAD_CAT_ID,OBJECT_NAME,OBJECT_TYPE,EPOCH,MEAN_MOTION,ECCENTRICITY,INCLINATION,RA_OF_ASC_NODE,ARG_OF_PERICENTER,MEAN_ANOMALY,BSTAR,MEAN_MOTION_DOT,MEAN_MOTION_DDOT,TLE_LINE0,TLE_LINE1,TLE_LINE2,SEMIMAJOR_AXIS,PERIOD,APOGEE,PERIGEE,DECAYED
51869.0,STARLINK-3588,PAYLOAD,2023-04-02 12:32:26,15.08860385,0.0001495,53.2159,142.2639,87.6436,272.4727,0.0011033,0.00017324,0.0,0 STARLINK-3588,1 51869U 22022T   23092.52252985  .00017324  00000-0  11033-2 0  9998,2 51869  53.2159 142.2639 0001495  87.6436 272.4727 15.08860385 61255,6917.818,95.436,540.717,538.649,0.0
51869.0,STARLINK-3588,PAYLOAD,2023-04-02 20:29:21,15.08837622,3.7e-05,53.2154,140.7778,155.9687,204.1322,-0.00011858,-2.174e-05,0.0,0 STARLINK-3588,1 51869U 22022T   23092.85372669 -.00002174  00000-0 -11858-3 0  9991,2 51869  53.2154 140.7778 0000370 155.9687 204.1322 15.08837622 61302,6917.888,95.438,540.009,539.497,0.0
51869.0,STARLINK-3588,PAYLOAD,2023-04-03 09:12:27,15.08842571,0.0001317,53.2146,138.3979,92.8816,267.2327,0.00036848,5.582e-05,0.0,0 STARLINK-3588,1 51869U 22022T   23093.38365279  .00005582  00000-0  36848-3 0  9999,2 51869  53.2146 138.3979 0001317  92.8816 267.2327 15.08842571 61386,6917.873,95.437,540.649,538.826,0.0
51869.0,STARLINK-3588,PAYLOAD,2023-04-03 20:20:09,15.08845458,0.0001281,53.2142,136.3161,93.3925,266.7214,0.00080158,0.00012494,0.0,0 STARLINK-3588,1 51869U 22022T   23093.84733430  .00012494  00000-0  80158-3 0  9991,2 51869  53.2142 136.3161 0001281  93.3925 266.7214 15.08845458 61454,6917.864,95.437,540.615,538.843,0.0
51869.0,STARLINK-3588,PAYLOAD,2023-04-04 02:41:42,15.08852332,0.0001385,53.2142,135.1261,93.7912,266.3238,0.0010019,0.00015699,0.0,0 STARLINK-3588,1 51869U 22022T   23094.11229379  .00015699  00000-0  10019-2 0  9992,2 51869  53.2142 135.1261 0001385  93.7912 266.3238 15.08852332 61492,6917.843,95.437,540.666,538.75,0.0
51869.0,STARLINK-3588,PAYLOAD,2023-04-04 09:03:14,15.08856638,0.000137,53.2144,133.9363,93.7609,266.354,0.00088592,0.00013846,0.0,0 STARLINK-3588,1 51869U 22022T   23094.37725160  .00013846  00000-0  88592-3 0  9993,2 51869  53.2144 133.9363 0001370  93.7609 266.3540 15.08856638 61534,6917.83,95.437,540.642,538.747,0.0
51869.0,STARLINK-3588,PAYLOAD,2023-04-04 13:49:23,15.08862746,0.0001395,53.2145,133.0439,94.2371,265.8781,0.00088979,0.0001391,0.0,0 STARLINK-3588,1 51869U 22022T   23094.57596851  .00013910  00000-0  88979-3 0  9999,2 51869  53.2145 133.0439 0001395  94.2371 265.8781 15.08862746 61560,6917.811,95.436,540.641,538.711,0.0
51869.0,STARLINK-3588,PAYLOAD,2023-04-05 05:43:15,15.08841859,0.0001312,53.2147,130.0702,100.9161,259.1979,0.00015678,2.208e-05,0.0,0 STARLINK-3588,1 51869U 22022T   23095.23837200  .00002208  00000-0  15678-3 0  9993,2 51869  53.2147 130.0702 0001312 100.9161 259.1979 15.08841859 61661,6917.875,95.437,540.647,538.832,0.0
51869.0,STARLINK-3588,PAYLOAD,2023-04-05 08:54:01,15.08843458,0.0001228,53.215,129.4759,95.2554,264.8578,0.00031563,4.739e-05,0.0,0 STARLINK-3588,1 51869U 22022T   23095.37085208  .00004739  00000-0  31563-3 0  9993,2 51869  53.2150 129.4759 0001228  95.2554 264.8578 15.08843458 61684,6917.87,95.437,540.584,538.885,0.0
51869.0,STARLINK-3588,PAYLOAD,2023-04-05 13:40:11,15.08846179,0.0001228,53.215,128.5832,97.9681,262.145,0.00054505,8.399e-05,0.0,0 STARLINK-3588,1 51869U 22022T   23095.56957189  .00008399  00000-0  54505-3 0  9997,2 51869  53.2150 128.5832 0001228  97.9681 262.1450 15.08846179 61713,6917.862,95.437,540.576,538.877,0.0
51869.0,STARLINK-3588,PAYLOAD,2023-04-06 07:09:25,15.08843254,0.0001329,53.2149,125.3118,99.2724,260.8419,0.0003123,4.686e-05,0.0,0 STARLINK-3588,1 51869U 22022T   23096.29821310  .00004686  00000-0  31230-3 0  9999,2 51869  53.2149 125.3118 0001329  99.2724 260.8419 15.08843254 61821,6917.87,95.437,540.655,538.816,0.0
51869.0,STARLINK-3588,PAYLOAD,2023-04-06 11:55:34,15.08847375,0.0001438,53.2156,124.42,106.2843,253.8307,0.00036407,5.512e-05,0.0,0 STARLINK-3588,1 51869U 22022T   23096.49693150  .00005512  00000-0  36407-3 0  9990,2 51869  53.2156 124.4200 0001438 106.2843 253.8307 15.08847375 61852,6917.858,95.437,540.718,538.728,0.0
51869.0,STARLINK-3588,PAYLOAD,2023-04-06 18:17:07,15.0884258,0.0001314,53.2148,123.2306,88.559,271.5553,0.00023285,3.42e-05,0.0,0 STARLINK-3588,1 51869U 22022T   23096.76189284  .00003420  00000-0  23285-3 0  9994,2 51869  53.2148 123.2306 0001314  88.5590 271.5553 15.08842580 61898,6917.873,95.437,540.647,538.828,0.0
51869.0,STARLINK-3588,PAYLOAD,2023-04-07 10:10:58,15.08846229,0.0001288,53.215,120.2562,101.8624,258.2512,0.00018054,2.587e-05,0.0,0 STARLINK-3588,1 51869U 22022T   23097.42429031  .00002587  00000-0  18054-3 0  9996,2 51869  53.2150 120.2562 0001288 101.8624 258.2512 15.08846229 61991,6917.861,95.437,540.617,538.835,0.0
51869.0,STARLINK-3588,PAYLOAD,2023-04-08 11:37:09,15.08842525,0.0001201,53.2153,115.499,91.2348,268.8782,8.0527e-05,9.94e-06,0.0,0 STARLINK-3588,1 51869U 22022T   23098.48413198  .00000994  00000-0  80527-4 0  9995,2 51869  53.2153 115.4990 0001201  91.2348 268.8782 15.08842525 62155,6917.873,95.437,540.569,538.907,0.0
51869.0,STARLINK-3588,PAYLOAD,2023-04-09 08:17:10,15.0883543,0.0001279,53.2157,111.6347,90.9604,269.1535,-2.5574e-06,-3.29e-06,0.0,0 STARLINK-3588,1 51869U 22022T   23099.34525742 -.00000329  00000-0 -25574-5 0  9996,2 51869  53.2157 111.6347 0001279  90.9604 269.1535 15.08835430 62280,6917.894,95.438,540.644,538.875,0.0
51869.0,STARLINK-3588,PAYLOAD,2023-04-09 17:49:29,15.08839421,0.0001327,53.2174,109.8475,88.384,271.7304,7.0449e-05,8.33e-06,0.0,0 STARLINK-3588,1 51869U 22022T   23099.74269818  .00000833  00000-0  70449-4 0  9997,2 51869  53.2174 109.8475 0001327  88.3840 271.7304 15.08839421 62341,6917.882,95.438,540.665,538.829,0.0
51869.0,STARLINK-3588,PAYLOAD,2023-04-10 12:54:05,15.08850388,0.0001285,53.2169,106.2796,88.0392,272.0747,0.00016747,2.379e-05,0.0,0 STARLINK-3588,1 51869U 22022T   23100.53756897  .00002379  00000-0  16747-3 0  9992,2 51869  53.2169 106.2796 0001285  88.0392 272.0747 15.08850388 62467,6917.849,95.437,540.603,538.825,0.0
51869.0,STARLINK-3588,PAYLOAD,2023-04-10 17:40:15,15.08845739,0.0001208,53.2162,105.3875,88.5735,271.5396,0.00012797,1.75e-05,0.0,0 STARLINK-3588,1 51869U 22022T   23100.73629244  .00001750  00000-0  12797-3 0  9992,2 51869  53.2162 105.3875 0001208  88.5735 271.5396 15.08845739 62490,6917.863,95.437,540.564,538.892,0.0
51869.0,STARLINK-3588,PAYLOAD,2023-04-11 06:23:20,15.08846082,0.0001262,53.2168,103.0095,88.4832,271.6304,0.00012854,1.759e-05,0.0,0 STARLINK-3588,1 51869U 22022T   23101.26621265  .00001759  00000-0  12854-3 0  9999,2 51869  53.2168 103.0095 0001262  88.4832 271.6304 15.08846082 62573,6917.862,95.437,540.6,538.854,0.0
51869.0,STARLINK-3588,PAYLOAD,2023-04-11 09:34:06,15.08849095,0.0001308,53.2163,102.4142,88.8709,271.2433,0.00015604,2.197e-05,0.0,0 STARLINK-3588,1 51869U 22022T   23101.39868975  .00002197  00000-0  15604-3 0  9997,2 51869  53.2163 102.4142 0001308  88.8709 271.2433 15.08849095 62590,6917.853,95.437,540.622,538.813,0.0
51869.0,STARLINK-3588,PAYLOAD,2023-04-11 17:31:02,15.08851613,0.0001286,53.2164,100.9272,88.6439,271.4701,0.00016193,2.291e-05,0.0,0 STARLINK-3588,1 51869U 22022T   23101.72988708  .00002291  00000-0  16193-3 0  9990,2 51869  53.2164 100.9272 0001286  88.6439 271.4701 15.08851613 62646,6917.845,95.437,540.6,538.82,0.0
51869.0,STARLINK-3588,PAYLOAD,2023-04-12 04:38:45,15.08837696,0.000141,53.2148,98.8449,89.5994,270.5159,-1.5509e-05,-5.35e-06,0.0,0 STARLINK-3588,1 51869U 22022T   23102.19357691 -.00000535  00000-0 -15509-4 0  9995,2 51869  53.2148  98.8449 0001410  89.5994 270.5159 15.08837696 62714,6917.887,95.438,540.728,538.777,0.0
51869.0,STARLINK-3588,PAYLOAD,2023-04-12 11:00:17,15.088433,0.0001359,53.2161,97.6566,93.9674,266.1473,6.2241e-05,7.03e-06,0.0,0 STARLINK-3588,1 51869U 22022T   23102.45853398  .00000703  00000-0  62241-4 0  9999,2 51869  53.2161  97.6566 0001359  93.9674 266.1473 15.08843300 62755,6917.87,95.437,540.675,538.795,0.0
51869.0,STARLINK-3588,PAYLOAD,2023-04-13 09:15:41,15.08839816,0.0001473,53.2167,93.4939,94.1397,265.9764,5.1633e-05,5.34e-06,0.0,0 STARLINK-3588,1 51869U 22022T   23103.38589873  .00000534  00000-0  51633-4 0  9991,2 51869  53.2167  93.4939 0001473  94.1397 265.9764 15.08839816 62893,6917.881,95.438,540.765,538.727,0.0
51869.0,STARLINK-3588,PAYLOAD,2023-04-14 07:31:05,15.0884882,0.0001321,53.2161,89.33,93.653,266.4613,0.00022702,3.328e-05,0.0,0 STARLINK-3588,1 51869U 22022T   23104.31325502  .00003328  00000-0  22702-3 0  9990,2 51869  53.2161  89.3300 0001321  93.6530 266.4613 15.08848820 63039,6917.853,95.437,540.632,538.805,0.0
51869.0,STARLINK-3588,PAYLOAD,2023-04-15 07:21:52,15.08845321,0.0001383,53.2166,84.8705,102.7725,257.3422,0.00012686,1.732e-05,0.0,0 STARLINK-3588,1 51869U 22022T   23105.30685734  .00001732  00000-0  12686-3 0  9993,2 51869  53.2166  84.8705 0001383 102.7725 257.3422 15.08845321 63185,6917.864,95.437,540.686,538.772,0.0
51869.0,STARLINK-3588,PAYLOAD,2023-04-15 15:18:48,15.08842253,0.0001246,53.2165,83.3832,98.2854,261.8279,6.7667e-05,7.89e-06,0.0,0 STARLINK-3588,1 51869U 22022T   23105.63805804  .00000789  00000-0  67667-4 0  9992,2 51869  53.2165  83.3832 0001246  98.2854 261.8279 15.08842253 63236,6917.874,95.437,540.6,538.877,0.0
51869.0,STARLINK-3588,PAYLOAD,2023-04-16 05:37:16,15.08838522,0.0001406,53.2168,80.7093,111.6633,248.4509,-3.8707e-05,-9.04e-06,0.0,0 STARLINK-3588,1 51869U 22022T   23106.23422151 -.00000904  00000-0 -38707-4 0  9993,2 51869  53.2168  80.7093 0001406 111.6633 248.4509 15.08838522 63323,6917.885,95.438,540.723,538.777,0.0
51869.0,STARLINK-3588,PAYLOAD,2023-04-16 08:48:02,15.08840611,0.0001264,53.2159,80.1122,101.2335,258.8799,6.7417e-05,7.85e-06,0.0,0 STARLINK-3588,1 51869U 22022T   23106.36670011  .00000785  00000-0  67417-4 0  9992,2 51869  53.2159  80.1122 0001264 101.2335 258.8799 15.08840611 63346,6917.879,95.438,540.618,538.869,0.0
